SL-3 R/B                
1 13403U 82079B   26056.26321370  .00006445  00000+0  25830-3 0  9999
2 13403  81.1460 207.7465 0024571 206.8807 153.1155 15.24584033375803
SL-14 R/B               
1 13553U 82092B   26056.25837812  .00000474  00000+0  50497-4 0  9996
2 13553  82.5712 153.0244 0019886 346.7983  70.4058 14.86651710327088
SL-3 R/B                
1 13819U 83010B   26056.27008361  .00015876  00000+0  32420-3 0  9990
2 13819  81.1044  17.4666 0018661  90.0713 270.2670 15.45848074356020
SL-3 R/B                
1 14208U 83075B   26056.19721279  .00011150  00000+0  29796-3 0  9998
2 14208  97.6143  60.3060 0019644 275.1294  84.7708 15.38069522328239
COSMOS 1536             
1 14699U 84013A   26056.24254344  .00006531  00000+0  27063-3 0  9997
2 14699  82.5451 120.2218 0013279 331.6088  28.4424 15.23640993270727
SL-14 R/B               
1 14820U 84027B   26055.96631831  .00000397  00000+0  42623-4 0  9990
2 14820  82.5381 256.9493 0018455  20.3654 339.8294 14.85961242245747
SL-8 R/B                
1 15483U 85006B   26056.07319457  .00000125  00000+0  50064-4 0  9991
2 15483  74.0443 284.3657 0018962 204.7787 263.7728 14.37775455152215
SL-12 R/B(2)            
1 15772U 85042D   26056.31513230 -.00000010  00000+0  16768-4 0  9991
2 15772  71.1072 113.8744 0033892 148.3140 282.1356 14.21978719112635
SL-14 R/B               
1 15945U 85069B   26056.29153784  .00000547  00000+0  59095-4 0  9997
2 15945  82.5259  36.5915 0017487 230.5092 129.4579 14.86416278170994
SL-16 R/B               
1 16182U 85097B   26056.26825162  .00000266  00000+0  15726-3 0  9995
2 16182  71.0036 166.7026 0009764 273.9105 106.0611 14.16597232 85477
SL-14 R/B               
1 16496U 86006B   26056.06994230  .00000519  00000+0  52640-4 0  9993
2 16496  82.5239 271.6173 0075510 315.4113  44.1044 14.86796005147331
COSMOS 1743             
1 16719U 86034A   26056.11809300  .00029980  00000+0  40566-3 0  9997
2 16719  82.5312  87.0163 0003204   2.0680 358.0587 15.57554929178292
