CCSDS_OMM_VERS = 2.0
CREATION_DATE  = 
ORIGINATOR     = 

OBJECT_NAME    = SL-3 R/B
OBJECT_ID      = 1982-079B
CENTER_NAME    = EARTH
REF_FRAME      = TEME
TIME_SYSTEM    = UTC
MEAN_ELEMENT_THEORY = SGP/SGP4

EPOCH          = 2026-02-25T06:19:01.663680
MEAN_MOTION    = 15.24584033
ECCENTRICITY   = .00245711
INCLINATION    = 81.1460
RA_OF_ASC_NODE = 207.7465
ARG_OF_PERICENTER = 206.8807
MEAN_ANOMALY   = 153.1155

EPHEMERIS_TYPE = 0
CLASSIFICATION_TYPE = U
NORAD_CAT_ID   = 13403
ELEMENT_SET_NO = 999
REV_AT_EPOCH   = 37580
BSTAR          = .25829663E-3
MEAN_MOTION_DOT = .6445E-4
MEAN_MOTION_DDOT = 0

CCSDS_OMM_VERS = 2.0
CREATION_DATE  = 
ORIGINATOR     = 

OBJECT_NAME    = SL-14 R/B
OBJECT_ID      = 1982-092B
CENTER_NAME    = EARTH
REF_FRAME      = TEME
TIME_SYSTEM    = UTC
MEAN_ELEMENT_THEORY = SGP/SGP4

EPOCH          = 2026-02-25T06:12:03.869568
MEAN_MOTION    = 14.86651710
ECCENTRICITY   = .00198865
INCLINATION    = 82.5712
RA_OF_ASC_NODE = 153.0244
ARG_OF_PERICENTER = 346.7983
MEAN_ANOMALY   = 70.4058

EPHEMERIS_TYPE = 0
CLASSIFICATION_TYPE = U
NORAD_CAT_ID   = 13553
ELEMENT_SET_NO = 999
REV_AT_EPOCH   = 32708
BSTAR          = .50496611E-4
MEAN_MOTION_DOT = .474E-5
MEAN_MOTION_DDOT = 0

CCSDS_OMM_VERS = 2.0
CREATION_DATE  = 
ORIGINATOR     = 

OBJECT_NAME    = SL-3 R/B
OBJECT_ID      = 1983-010B
CENTER_NAME    = EARTH
REF_FRAME      = TEME
TIME_SYSTEM    = UTC
MEAN_ELEMENT_THEORY = SGP/SGP4

EPOCH          = 2026-02-25T06:28:55.223904
MEAN_MOTION    = 15.45848074
ECCENTRICITY   = .00186619
INCLINATION    = 81.1044
RA_OF_ASC_NODE = 17.4666
ARG_OF_PERICENTER = 90.0713
MEAN_ANOMALY   = 270.2670

EPHEMERIS_TYPE = 0
CLASSIFICATION_TYPE = U
NORAD_CAT_ID   = 13819
ELEMENT_SET_NO = 999
REV_AT_EPOCH   = 35602
BSTAR          = .32420067E-3
MEAN_MOTION_DOT = .15876E-3
MEAN_MOTION_DDOT = 0

CCSDS_OMM_VERS = 2.0
CREATION_DATE  = 
ORIGINATOR     = 

OBJECT_NAME    = SL-3 R/B
OBJECT_ID      = 1983-075B
CENTER_NAME    = EARTH
REF_FRAME      = TEME
TIME_SYSTEM    = UTC
MEAN_ELEMENT_THEORY = SGP/SGP4

EPOCH          = 2026-02-25T04:43:59.185056
MEAN_MOTION    = 15.38069522
ECCENTRICITY   = .0019644
INCLINATION    = 97.6143
RA_OF_ASC_NODE = 60.3060
ARG_OF_PERICENTER = 275.1294
MEAN_ANOMALY   = 84.7708

EPHEMERIS_TYPE = 0
CLASSIFICATION_TYPE = U
NORAD_CAT_ID   = 14208
ELEMENT_SET_NO = 999
REV_AT_EPOCH   = 32823
BSTAR          = .29795735E-3
MEAN_MOTION_DOT = .1115E-3
MEAN_MOTION_DDOT = 0

CCSDS_OMM_VERS = 2.0
CREATION_DATE  = 
ORIGINATOR     = 

OBJECT_NAME    = COSMOS 1536
OBJECT_ID      = 1984-013A
CENTER_NAME    = EARTH
REF_FRAME      = TEME
TIME_SYSTEM    = UTC
MEAN_ELEMENT_THEORY = SGP/SGP4

EPOCH          = 2026-02-25T05:49:15.753216
MEAN_MOTION    = 15.23640993
ECCENTRICITY   = .00132795
INCLINATION    = 82.5451
RA_OF_ASC_NODE = 120.2218
ARG_OF_PERICENTER = 331.6088
MEAN_ANOMALY   = 28.4424

EPHEMERIS_TYPE = 0
CLASSIFICATION_TYPE = U
NORAD_CAT_ID   = 14699
ELEMENT_SET_NO = 999
REV_AT_EPOCH   = 27072
BSTAR          = .27063441E-3
MEAN_MOTION_DOT = .6531E-4
MEAN_MOTION_DDOT = 0

CCSDS_OMM_VERS = 2.0
CREATION_DATE  = 
ORIGINATOR     = 

OBJECT_NAME    = SL-14 R/B
OBJECT_ID      = 1984-027B
CENTER_NAME    = EARTH
REF_FRAME      = TEME
TIME_SYSTEM    = UTC
MEAN_ELEMENT_THEORY = SGP/SGP4

EPOCH          = 2026-02-24T23:11:29.901984
MEAN_MOTION    = 14.85961242
ECCENTRICITY   = .0018455
INCLINATION    = 82.5381
RA_OF_ASC_NODE = 256.9493
ARG_OF_PERICENTER = 20.3654
MEAN_ANOMALY   = 339.8294

EPHEMERIS_TYPE = 0
CLASSIFICATION_TYPE = U
NORAD_CAT_ID   = 14820
ELEMENT_SET_NO = 999
REV_AT_EPOCH   = 24574
BSTAR          = .42623E-4
MEAN_MOTION_DOT = .397E-5
MEAN_MOTION_DDOT = 0

CCSDS_OMM_VERS = 2.0
CREATION_DATE  = 
ORIGINATOR     = 

OBJECT_NAME    = SL-8 R/B
OBJECT_ID      = 1985-006B
CENTER_NAME    = EARTH
REF_FRAME      = TEME
TIME_SYSTEM    = UTC
MEAN_ELEMENT_THEORY = SGP/SGP4

EPOCH          = 2026-02-25T01:45:24.010848
MEAN_MOTION    = 14.37775455
ECCENTRICITY   = .00189622
INCLINATION    = 74.0443
RA_OF_ASC_NODE = 284.3657
ARG_OF_PERICENTER = 204.7787
MEAN_ANOMALY   = 263.7728

EPHEMERIS_TYPE = 0
CLASSIFICATION_TYPE = U
NORAD_CAT_ID   = 15483
ELEMENT_SET_NO = 999
REV_AT_EPOCH   = 15221
BSTAR          = .50064367E-4
MEAN_MOTION_DOT = .125E-5
MEAN_MOTION_DDOT = 0

CCSDS_OMM_VERS = 2.0
CREATION_DATE  = 
ORIGINATOR     = 

OBJECT_NAME    = SL-12 R/B(2)
OBJECT_ID      = 1985-042D
CENTER_NAME    = EARTH
REF_FRAME      = TEME
TIME_SYSTEM    = UTC
MEAN_ELEMENT_THEORY = SGP/SGP4

EPOCH          = 2026-02-25T07:33:47.430720
MEAN_MOTION    = 14.21978719
ECCENTRICITY   = .00338924
INCLINATION    = 71.1072
RA_OF_ASC_NODE = 113.8744
ARG_OF_PERICENTER = 148.3140
MEAN_ANOMALY   = 282.1356

EPHEMERIS_TYPE = 0
CLASSIFICATION_TYPE = U
NORAD_CAT_ID   = 15772
ELEMENT_SET_NO = 999
REV_AT_EPOCH   = 11263
BSTAR          = .16768325E-4
MEAN_MOTION_DOT = -.1E-6
MEAN_MOTION_DDOT = 0

CCSDS_OMM_VERS = 2.0
CREATION_DATE  = 
ORIGINATOR     = 

OBJECT_NAME    = SL-14 R/B
OBJECT_ID      = 1985-069B
CENTER_NAME    = EARTH
REF_FRAME      = TEME
TIME_SYSTEM    = UTC
MEAN_ELEMENT_THEORY = SGP/SGP4

EPOCH          = 2026-02-25T06:59:48.869376
MEAN_MOTION    = 14.86416278
ECCENTRICITY   = .00174874
INCLINATION    = 82.5259
RA_OF_ASC_NODE = 36.5915
ARG_OF_PERICENTER = 230.5092
MEAN_ANOMALY   = 129.4579

EPHEMERIS_TYPE = 0
CLASSIFICATION_TYPE = U
NORAD_CAT_ID   = 15945
ELEMENT_SET_NO = 999
REV_AT_EPOCH   = 17099
BSTAR          = .59095384E-4
MEAN_MOTION_DOT = .547E-5
MEAN_MOTION_DDOT = 0

CCSDS_OMM_VERS = 2.0
CREATION_DATE  = 
ORIGINATOR     = 

OBJECT_NAME    = SL-16 R/B
OBJECT_ID      = 1985-097B
CENTER_NAME    = EARTH
REF_FRAME      = TEME
TIME_SYSTEM    = UTC
MEAN_ELEMENT_THEORY = SGP/SGP4

EPOCH          = 2026-02-25T06:26:16.939968
MEAN_MOTION    = 14.16597232
ECCENTRICITY   = .00097649
INCLINATION    = 71.0036
RA_OF_ASC_NODE = 166.7026
ARG_OF_PERICENTER = 273.9105
MEAN_ANOMALY   = 106.0611

EPHEMERIS_TYPE = 0
CLASSIFICATION_TYPE = U
NORAD_CAT_ID   = 16182
ELEMENT_SET_NO = 999
REV_AT_EPOCH   = 8547
BSTAR          = .15725842E-3
MEAN_MOTION_DOT = .266E-5
MEAN_MOTION_DDOT = 0

CCSDS_OMM_VERS = 2.0
CREATION_DATE  = 
ORIGINATOR     = 

OBJECT_NAME    = SL-14 R/B
OBJECT_ID      = 1986-006B
CENTER_NAME    = EARTH
REF_FRAME      = TEME
TIME_SYSTEM    = UTC
MEAN_ELEMENT_THEORY = SGP/SGP4

EPOCH          = 2026-02-25T01:40:43.014720
MEAN_MOTION    = 14.86796005
ECCENTRICITY   = .00755102
INCLINATION    = 82.5239
RA_OF_ASC_NODE = 271.6173
ARG_OF_PERICENTER = 315.4113
MEAN_ANOMALY   = 44.1044

EPHEMERIS_TYPE = 0
CLASSIFICATION_TYPE = U
NORAD_CAT_ID   = 16496
ELEMENT_SET_NO = 999
REV_AT_EPOCH   = 14733
BSTAR          = .52639845E-4
MEAN_MOTION_DOT = .519E-5
MEAN_MOTION_DDOT = 0

CCSDS_OMM_VERS = 2.0
CREATION_DATE  = 
ORIGINATOR     = 

OBJECT_NAME    = COSMOS 1743
OBJECT_ID      = 1986-034A
CENTER_NAME    = EARTH
REF_FRAME      = TEME
TIME_SYSTEM    = UTC
MEAN_ELEMENT_THEORY = SGP/SGP4

EPOCH          = 2026-02-25T02:50:03.235200
MEAN_MOTION    = 15.57554929
ECCENTRICITY   = .00032048
INCLINATION    = 82.5312
RA_OF_ASC_NODE = 87.0163
ARG_OF_PERICENTER = 2.0680
MEAN_ANOMALY   = 358.0587

EPHEMERIS_TYPE = 0
CLASSIFICATION_TYPE = U
NORAD_CAT_ID   = 16719
ELEMENT_SET_NO = 999
REV_AT_EPOCH   = 17829
BSTAR          = .40566465E-3
MEAN_MOTION_DOT = .2998E-3
MEAN_MOTION_DDOT = 0

